{"type": "FeatureCollection", "features": [ {"type": "Feature", "properties": {"norad_id": 29973, "name": "FENGYUN 1C DEB", "group": "fengyun-1c-debris", "lat": 18.462288301788742, "lon": -22.38627674531379, "alt_km": 908.2092705872028, "timestamp": "2025-12-05T22:40:48.823422+00:00", "meta": {"OBJECT_NAME": "FENGYUN 1C DEB", "OBJECT_ID": "1999-025KX", "EPOCH": "2025-12-04T22:58:46.898400", "MEAN_MOTION": 14.06510802, "ECCENTRICITY": 0.0059002, "INCLINATION": 98.8422, "RA_OF_ASC_NODE": 339.6279, "ARG_OF_PERICENTER": 170.7349, "MEAN_ANOMALY": 250.9183, "EPHEMERIS_TYPE": 0, "CLASSIFICATION_TYPE": "U", "NORAD_CAT_ID": 29973, "ELEMENT_SET_NO": 999, "REV_AT_EPOCH": 96609, "BSTAR": 0.0011259, "MEAN_MOTION_DOT": 1.85e-05, "MEAN_MOTION_DDOT": 0}, "tle": {"line1": "1 29973U 99025KX  25338.95748725  .00001850  00000+0  11259-2 0  9996", "line2": "2 29973  98.8422 339.6279 0059002 170.7349 250.9183 14.06510802966096"}}, "geometry": {"type": "Point", "coordinates": [-22.38627674531379, 18.462288301788742]}}, {"type": "Feature", "properties": {"norad_id": 29974, "name": "FENGYUN 1C DEB", "group": "fengyun-1c-debris", "lat": 34.1058522386661, "lon": 58.05509927761808, "alt_km": 827.0562281050452, "timestamp": "2025-12-05T22:40:48.823432+00:00", "meta": {"OBJECT_NAME": "FENGYUN 1C DEB", "OBJECT_ID": "1999-025KY", "EPOCH": "2025-12-05T03:58:49.592928", "MEAN_MOTION": 14.14797265, "ECCENTRICITY": 0.00472204, "INCLINATION": 98.8947, "RA_OF_ASC_NODE": 63.3665, "ARG_OF_PERICENTER": 103.5001, "MEAN_ANOMALY": 285.4086, "EPHEMERIS_TYPE": 0, "CLASSIFICATION_TYPE": "U", "NORAD_CAT_ID": 29974, "ELEMENT_SET_NO": 999, "REV_AT_EPOCH": 96818, "BSTAR": 0.0024642916, "MEAN_MOTION_DOT": 4.761e-05, "MEAN_MOTION_DDOT": 0}, "tle": {"line1": "1 29974U 99025KY  25339.16585177  .00004761  00000+0  24643-2 0  9996", "line2": "2 29974  98.8947  63.3665 0047220 103.5001 285.4086 14.14797265968183"}}, "geometry": {"type": "Point", "coordinates": [58.05509927761808, 34.1058522386661]}}, {"type": "Feature", "properties": {"norad_id": 29975, "name": "FENGYUN 1C DEB", "group": "fengyun-1c-debris", "lat": 78.32007836633485, "lon": -31.875172580965597, "alt_km": 840.1505984303885, "timestamp": "2025-12-05T22:40:48.823442+00:00", "meta": {"OBJECT_NAME": "FENGYUN 1C DEB", "OBJECT_ID": "1999-025KZ", "EPOCH": "2025-12-05T01:55:56.076096", "MEAN_MOTION": 13.98023269, "ECCENTRICITY": 0.01140958, "INCLINATION": 99.3409, "RA_OF_ASC_NODE": 20.0131, "ARG_OF_PERICENTER": 34.5974, "MEAN_ANOMALY": 18.803, "EPHEMERIS_TYPE": 0, "CLASSIFICATION_TYPE": "U", "NORAD_CAT_ID": 29975, "ELEMENT_SET_NO": 999, "REV_AT_EPOCH": 96330, "BSTAR": 0.000185299, "MEAN_MOTION_DOT": 2.32e-06, "MEAN_MOTION_DDOT": 0}, "tle": {"line1": "1 29975U 99025KZ  25339.08051014  .00000232  00000+0  18530-3 0  9994", "line2": "2 29975  99.3409  20.0131 0114095  34.5974  18.8030 13.98023269963301"}}, "geometry": {"type": "Point", "coordinates": [-31.875172580965597, 78.32007836633485]}}, {"type": "Feature", "properties": {"norad_id": 29976, "name": "FENGYUN 1C DEB", "group": "fengyun-1c-debris", "lat": -74.12940581771115, "lon": 123.91419199200853, "alt_km": 712.9930930343016, "timestamp": "2025-12-05T22:40:48.823452+00:00", "meta": {"OBJECT_NAME": "FENGYUN 1C DEB", "OBJECT_ID": "1999-025LA", "EPOCH": "2025-12-05T06:18:43.282944", "MEAN_MOTION": 13.98098179, "ECCENTRICITY": 0.02675233, "INCLINATION": 98.9177, "RA_OF_ASC_NODE": 336.7732, "ARG_OF_PERICENTER": 260.298, "MEAN_ANOMALY": 165.8098, "EPHEMERIS_TYPE": 0, "CLASSIFICATION_TYPE": "U", "NORAD_CAT_ID": 29976, "ELEMENT_SET_NO": 999, "REV_AT_EPOCH": 96232, "BSTAR": 0.00037000867, "MEAN_MOTION_DOT": 6.68e-06, "MEAN_MOTION_DDOT": 0}, "tle": {"line1": "1 29976U 99025LA  25339.26300096  .00000668  00000+0  37001-3 0  9999", "line2": "2 29976  98.9177 336.7732 0267523 260.2980 165.8098 13.98098179962323"}}, "geometry": {"type": "Point", "coordinates": [123.91419199200853, -74.12940581771115]}}, {"type": "Feature", "properties": {"norad_id": 29977, "name": "FENGYUN 1C DEB", "group": "fengyun-1c-debris", "lat": 19.728724995420254, "lon": -160.54504201101028, "alt_km": 897.3870676676215, "timestamp": "2025-12-05T22:40:48.823463+00:00", "meta": {"OBJECT_NAME": "FENGYUN 1C DEB", "OBJECT_ID": "1999-025LB", "EPOCH": "2025-12-04T14:22:59.594304", "MEAN_MOTION": 14.05030377, "ECCENTRICITY": 0.01288, "INCLINATION": 98.3967, "RA_OF_ASC_NODE": 201.245, "ARG_OF_PERICENTER": 280.1888, "MEAN_ANOMALY": 135.4786, "EPHEMERIS_TYPE": 0, "CLASSIFICATION_TYPE": "U", "NORAD_CAT_ID": 29977, "ELEMENT_SET_NO": 999, "REV_AT_EPOCH": 96246, "BSTAR": 0.0025351, "MEAN_MOTION_DOT": 4.359e-05, "MEAN_MOTION_DDOT": 0}, "tle": {"line1": "1 29977U 99025LB  25338.59930086  .00004359  00000+0  25351-2 0  9998", "line2": "2 29977  98.3967 201.2450 0128800 280.1888 135.4786 14.05030377962467"}}, "geometry": {"type": "Point", "coordinates": [-160.54504201101028, 19.728724995420254]}}, {"type": "Feature", "properties": {"norad_id": 29978, "name": "FENGYUN 1C DEB", "group": "fengyun-1c-debris", "lat": -34.86029247551006, "lon": 36.8864709733014, "alt_km": 929.1171125731044, "timestamp": "2025-12-05T22:40:48.823473+00:00", "meta": {"OBJECT_NAME": "FENGYUN 1C DEB", "OBJECT_ID": "1999-025LC", "EPOCH": "2025-12-05T02:27:46.730016", "MEAN_MOTION": 13.95905345, "ECCENTRICITY": 0.00769107, "INCLINATION": 99.0627, "RA_OF_ASC_NODE": 29.6746, "ARG_OF_PERICENTER": 72.9314, "MEAN_ANOMALY": 341.7523, "EPHEMERIS_TYPE": 0, "CLASSIFICATION_TYPE": "U", "NORAD_CAT_ID": 29978, "ELEMENT_SET_NO": 999, "REV_AT_EPOCH": 96210, "BSTAR": 0.00022579743, "MEAN_MOTION_DOT": 2.73e-06, "MEAN_MOTION_DDOT": 0}, "tle": {"line1": "1 29978U 99025LC  25339.10262419  .00000273  00000+0  22580-3 0  9998", "line2": "2 29978  99.0627  29.6746 0076910  72.9314 341.7523 13.95905345962100"}}, "geometry": {"type": "Point", "coordinates": [36.8864709733014, -34.86029247551006]}}, {"type": "Feature", "properties": {"norad_id": 29979, "name": "FENGYUN 1C DEB", "group": "fengyun-1c-debris", "lat": -31.57569980282767, "lon": 8.648815352364686, "alt_km": 874.3602752592487, "timestamp": "2025-12-05T22:40:48.823484+00:00", "meta": {"OBJECT_NAME": "FENGYUN 1C DEB", "OBJECT_ID": "1999-025LD", "EPOCH": "2025-12-05T01:11:53.392128", "MEAN_MOTION": 14.25938347, "ECCENTRICITY": 0.01071714, "INCLINATION": 98.3709, "RA_OF_ASC_NODE": 2.6013, "ARG_OF_PERICENTER": 185.4947, "MEAN_ANOMALY": 229.7588, "EPHEMERIS_TYPE": 0, "CLASSIFICATION_TYPE": "U", "NORAD_CAT_ID": 29979, "ELEMENT_SET_NO": 999, "REV_AT_EPOCH": 97964, "BSTAR": 0.0008207752, "MEAN_MOTION_DOT": 2.037e-05, "MEAN_MOTION_DDOT": 0}, "tle": {"line1": "1 29979U 99025LD  25339.04992352  .00002037  00000+0  82078-3 0  9996", "line2": "2 29979  98.3709   2.6013 0107171 185.4947 229.7588 14.25938347979643"}}, "geometry": {"type": "Point", "coordinates": [8.648815352364686, -31.57569980282767]}}, {"type": "Feature", "properties": {"norad_id": 29980, "name": "FENGYUN 1C DEB", "group": "fengyun-1c-debris", "lat": 17.196463837889272, "lon": 146.80253297250414, "alt_km": 893.7029445798644, "timestamp": "2025-12-05T22:40:48.823494+00:00", "meta": {"OBJECT_NAME": "FENGYUN 1C DEB", "OBJECT_ID": "1999-025LE", "EPOCH": "2025-12-05T06:22:35.489856", "MEAN_MOTION": 14.06307839, "ECCENTRICITY": 0.00867289, "INCLINATION": 98.5515, "RA_OF_ASC_NODE": 148.8297, "ARG_OF_PERICENTER": 269.213, "MEAN_ANOMALY": 270.074, "EPHEMERIS_TYPE": 0, "CLASSIFICATION_TYPE": "U", "NORAD_CAT_ID": 29980, "ELEMENT_SET_NO": 999, "REV_AT_EPOCH": 96887, "BSTAR": 0.00023698452, "MEAN_MOTION_DOT": 3.63e-06, "MEAN_MOTION_DDOT": 0}, "tle": {"line1": "1 29980U 99025LE  25339.26568854  .00000363  00000+0  23698-3 0  9991", "line2": "2 29980  98.5515 148.8297 0086728 269.2130 270.0740 14.06307839968875"}}, "geometry": {"type": "Point", "coordinates": [146.80253297250414, 17.196463837889272]}}, {"type": "Feature", "properties": {"norad_id": 29982, "name": "FENGYUN 1C DEB", "group": "fengyun-1c-debris", "lat": 23.70423689580942, "lon": 156.0524435566148, "alt_km": 647.6131680040389, "timestamp": "2025-12-05T22:40:48.823505+00:00", "meta": {"OBJECT_NAME": "FENGYUN 1C DEB", "OBJECT_ID": "1999-025LG", "EPOCH": "2025-12-05T07:00:56.562912", "MEAN_MOTION": 14.66788092, "ECCENTRICITY": 0.01222178, "INCLINATION": 99.4013, "RA_OF_ASC_NODE": 159.4766, "ARG_OF_PERICENTER": 311.04, "MEAN_ANOMALY": 227.258, "EPHEMERIS_TYPE": 0, "CLASSIFICATION_TYPE": "U", "NORAD_CAT_ID": 29982, "ELEMENT_SET_NO": 999, "REV_AT_EPOCH": 174, "BSTAR": 0.0011825331, "MEAN_MOTION_DOT": 7.311e-05, "MEAN_MOTION_DDOT": 0}, "tle": {"line1": "1 29982U 99025LG  25339.29232133  .00007311  00000+0  11825-2 0  9992", "line2": "2 29982  99.4013 159.4766 0122217 311.0400 227.2580 14.66788092  1749"}}, "geometry": {"type": "Point", "coordinates": [156.0524435566148, 23.70423689580942]}}, {"type": "Feature", "properties": {"norad_id": 29985, "name": "FENGYUN 1C DEB", "group": "fengyun-1c-debris", "lat": -37.38905425227687, "lon": 168.4893352528909, "alt_km": 844.8518387390232, "timestamp": "2025-12-05T22:40:48.823515+00:00", "meta": {"OBJECT_NAME": "FENGYUN 1C DEB", "OBJECT_ID": "1999-025LK", "EPOCH": "2025-12-04T23:47:39.900192", "MEAN_MOTION": 14.10321567, "ECCENTRICITY": 0.00277851, "INCLINATION": 98.7109, "RA_OF_ASC_NODE": 354.2945, "ARG_OF_PERICENTER": 231.4988, "MEAN_ANOMALY": 187.6152, "EPHEMERIS_TYPE": 0, "CLASSIFICATION_TYPE": "U", "NORAD_CAT_ID": 29985, "ELEMENT_SET_NO": 999, "REV_AT_EPOCH": 97239, "BSTAR": 0.00013332085, "MEAN_MOTION_DOT": 1.95e-06, "MEAN_MOTION_DDOT": 0}, "tle": {"line1": "1 29985U 99025LK  25338.99143403  .00000195  00000+0  13332-3 0  9991", "line2": "2 29985  98.7109 354.2945 0027785 231.4988 187.6152 14.10321567972395"}}, "geometry": {"type": "Point", "coordinates": [168.4893352528909, -37.38905425227687]}}]}